[{"OBJECT_NAME":"STARLINK-30536","OBJECT_ID":"2023-153C","EPOCH":"2026-03-09T09:19:01.029504","MEAN_MOTION":15.26739899,"ECCENTRICITY":0.0001369,"INCLINATION":43.0032,"RA_OF_ASC_NODE":68.4682,"ARG_OF_PERICENTER":262.654,"MEAN_ANOMALY":97.4156,"EPHEMERIS_TYPE":0,"CLASSIFICATION_TYPE":"U","NORAD_CAT_ID":57993,"ELEMENT_SET_NO":999,"REV_AT_EPOCH":13485,"BSTAR":5.0103194e-5,"MEAN_MOTION_DOT":1.084e-5,"MEAN_MOTION_DDOT":0},{"OBJECT_NAME":"CZ-6A DEB","OBJECT_ID":"2022-151CX","EPOCH":"2026-03-09T21:16:17.872608","MEAN_MOTION":15.11183333,"ECCENTRICITY":0.00647114,"INCLINATION":99.0278,"RA_OF_ASC_NODE":217.0514,"ARG_OF_PERICENTER":197.6419,"MEAN_ANOMALY":162.256,"EPHEMERIS_TYPE":0,"CLASSIFICATION_TYPE":"U","NORAD_CAT_ID":54352,"ELEMENT_SET_NO":999,"REV_AT_EPOCH":10537,"BSTAR":0.0059033487,"MEAN_MOTION_DOT":0.00105485,"MEAN_MOTION_DDOT":0}]
